GLOBALSTAR M075         
1 37192U 10054E   23304.95672735 -.00000062  00000+0  23050-3 0  9999
2 37192  51.9938 190.8415 0001046  72.5844 300.4037 12.62255248600963
GLOBALSTAR M073         
1 37193U 10054F   23305.22892338 -.00000118  00000+0 -80311-4 0  9991
2 37193  52.0046 103.3734 0000931 102.0831  69.9294 12.62269166602874
GLOBALSTAR M083         
1 37739U 11033A   23304.51966660 -.00000103  00000+0  44326-5 0  9996
2 37739  51.9870  55.0739 0000629  87.4130  41.4439 12.62262344571752
GLOBALSTAR M088         
1 37740U 11033B   23304.81944935 -.00000083  00000+0  11751-3 0  9993
2 37740  51.9745 320.1581 0000560  53.8567 117.1240 12.62266956567334
GLOBALSTAR M091         
1 37741U 11033C   23305.19424237 -.00000085  00000+0  10289-3 0  9991
2 37741  51.9997 281.5089 0000792  47.1405 327.0387 12.62267830568439
GLOBALSTAR M085         
1 37742U 11033D   23304.95688444 -.00000068  00000+0  20077-3 0  9994
2 37742  51.9863 233.7949 0000924  53.5943  22.0417 12.62264427568650
GLOBALSTAR M081         
1 37743U 11033E   23304.81231189 -.00000080  00000+0  13344-3 0  9993
2 37743  51.9954 236.6553 0001059  62.1481 316.1590 12.62265996568783
GLOBALSTAR M089         
1 37744U 11033F   23304.92989562 -.00000061  00000+0  24070-3 0  9998
2 37744  51.9920 190.6379 0000962  91.2464 281.5433 12.62269056569646
